TIANGONG 1              
1 37820U 11053A   17346.29815972  .00055446  94375-5  14357-3 0  9994
2 37820  42.7555 178.8421 0020301 277.3642  84.7187 15.94610211356243
